NORAD_CAT_ID,OBJECT_NAME,OBJECT_TYPE,EPOCH,MEAN_MOTION,ECCENTRICITY,INCLINATION,RA_OF_ASC_NODE,ARG_OF_PERICENTER,MEAN_ANOMALY,BSTAR,MEAN_MOTION_DOT,MEAN_MOTION_DDOT,TLE_LINE0,TLE_LINE1,TLE_LINE2,SEMIMAJOR_AXIS,PERIOD,APOGEE,PERIGEE,DECAYED
52832.0,STARLINK-4083,PAYLOAD,2023-11-03 05:28:38,15.08851427,0.0001379,53.2193,283.4133,93.7271,266.3879,0.00061012,9.438e-05,0.0,0 STARLINK-4083,1 52832U 22062C   23307.22822034  .00009438  00000-0  61012-3 0  9997,2 52832  53.2193 283.4133 0001379  93.7271 266.3879 15.08851427 76823,6917.845,95.437,540.664,538.756,0.0
52832.0,STARLINK-4083,PAYLOAD,2023-11-03 08:39:24,15.08854959,0.0001401,53.2193,282.8189,92.771,267.3443,0.00066265,0.00010278,0.0,0 STARLINK-4083,1 52832U 22062C   23307.36069909  .00010278  00000-0  66265-3 0  9995,2 52832  53.2193 282.8189 0001401  92.7710 267.3443 15.08854959 76359,6917.835,95.437,540.669,538.73,0.0
52832.0,STARLINK-4083,PAYLOAD,2023-11-03 22:57:52,15.08839913,0.0001402,53.2172,280.14,85.9299,274.1853,0.00044159,6.747e-05,0.0,0 STARLINK-4083,1 52832U 22062C   23307.95686259  .00006747  00000-0  44159-3 0  9997,2 52832  53.2172 280.1400 0001402  85.9299 274.1853 15.08839913 76444,6917.881,95.438,540.716,538.776,0.0
52832.0,STARLINK-4083,PAYLOAD,2023-11-04 05:19:25,15.08847965,0.0001374,53.217,278.9532,83.3176,276.7973,0.00048641,7.463e-05,0.0,0 STARLINK-4083,1 52832U 22062C   23308.22182075  .00007463  00000-0  48641-3 0  9991,2 52832  53.2170 278.9532 0001374  83.3176 276.7973 15.08847965 76972,6917.856,95.437,540.672,538.771,0.0
52832.0,STARLINK-4083,PAYLOAD,2023-11-04 08:30:11,15.08852227,0.0001378,53.2171,278.3583,81.7802,278.3346,0.00065941,0.00010226,0.0,0 STARLINK-4083,1 52832U 22062C   23308.35430009  .00010226  00000-0  65941-3 0  9991,2 52832  53.2171 278.3583 0001378  81.7802 278.3346 15.08852227 76503,6917.843,95.437,540.661,538.755,0.0
52832.0,STARLINK-4083,PAYLOAD,2023-11-04 14:51:44,15.08844703,0.0001306,53.2177,277.1707,86.0648,274.0494,0.00045879,7.022e-05,0.0,0 STARLINK-4083,1 52832U 22062C   23308.61926240  .00007022  00000-0  45879-3 0  9995,2 52832  53.2177 277.1707 0001306  86.0648 274.0494 15.08844703 77037,6917.866,95.437,540.634,538.828,0.0
52832.0,STARLINK-4083,PAYLOAD,2023-11-05 06:45:35,15.08855975,0.0001888,53.2185,274.1949,83.5613,276.5594,0.00040519,6.169e-05,0.0,0 STARLINK-4083,1 52832U 22062C   23309.28165883  .00006169  00000-0  40519-3 0  9994,2 52832  53.2185 274.1949 0001888  83.5613 276.5594 15.08855975 76647,6917.832,95.437,541.003,538.39,0.0
52832.0,STARLINK-4083,PAYLOAD,2023-11-05 14:42:31,15.08852578,0.0001747,53.2177,272.709,81.4034,278.7156,0.00042277,6.449e-05,0.0,0 STARLINK-4083,1 52832U 22062C   23309.61285915  .00006449  00000-0  42277-3 0  9994,2 52832  53.2177 272.7090 0001747  81.4034 278.7156 15.08852578 77181,6917.842,95.437,540.915,538.498,0.0
52832.0,STARLINK-4083,PAYLOAD,2023-11-06 06:36:21,15.08879378,0.0001497,53.2169,269.735,119.5932,240.5209,0.00083122,0.0001298,0.0,0 STARLINK-4083,1 52832U 22062C   23310.27524396  .00012980  00000-0  83122-3 0  9998,2 52832  53.2169 269.7350 0001497 119.5932 240.5209 15.08879378 77283,6917.76,95.435,540.661,538.589,0.0
52832.0,STARLINK-4083,PAYLOAD,2023-11-06 14:33:18,15.08841049,0.0002238,53.217,268.2459,72.2129,287.9108,4.0548e-05,3.57e-06,0.0,0 STARLINK-4083,1 52832U 22062C   23310.60645834  .00000357  00000-0  40548-4 0  9997,2 52832  53.2170 268.2459 0002238  72.2129 287.9108 15.08841049 76844,6917.877,95.437,541.29,538.194,0.0
52832.0,STARLINK-4083,PAYLOAD,2023-11-07 03:16:24,15.08807368,9.12e-05,53.2168,265.8708,74.909,285.2003,-0.00064661,-0.00010554,0.0,0 STARLINK-4083,1 52832U 22062C   23311.13639121 -.00010554  00000-0 -64661-3 0  9991,2 52832  53.2168 265.8708 0000912  74.9090 285.2003 15.08807368 77419,6917.98,95.44,540.476,539.214,0.0
52832.0,STARLINK-4083,PAYLOAD,2023-11-07 06:27:10,15.08820212,0.0001374,53.2183,265.2737,79.7188,280.3959,-0.00023243,-3.983e-05,0.0,0 STARLINK-4083,1 52832U 22062C   23311.26886880 -.00003983  00000-0 -23243-3 0  9990,2 52832  53.2183 265.2737 0001374  79.7188 280.3959 15.08820212 77437,6917.941,95.439,540.756,538.855,0.0
52832.0,STARLINK-4083,PAYLOAD,2023-11-07 14:24:05,15.08834952,0.0001157,53.2187,263.79,80.2465,279.8658,5.1751e-05,5.36e-06,0.0,0 STARLINK-4083,1 52832U 22062C   23311.60006840  .00000536  00000-0  51751-4 0  9993,2 52832  53.2187 263.7900 0001157  80.2465 279.8658 15.08834952 76995,6917.896,95.438,540.561,538.96,0.0
52832.0,STARLINK-4083,PAYLOAD,2023-11-08 06:17:57,15.08847977,0.0001245,53.2178,260.8162,81.1105,279.0028,0.00029867,4.47e-05,0.0,0 STARLINK-4083,1 52832U 22062C   23312.26246533  .00004470  00000-0  29867-3 0  9994,2 52832  53.2178 260.8162 0001245  81.1105 279.0028 15.08847977 77582,6917.856,95.437,540.582,538.86,0.0
52832.0,STARLINK-4083,PAYLOAD,2023-11-09 02:57:57,15.08848291,0.0001149,53.2178,256.9494,82.034,278.0782,0.00042138,6.426e-05,0.0,0 STARLINK-4083,1 52832U 22062C   23313.12358730  .00006426  00000-0  42138-3 0  9992,2 52832  53.2178 256.9494 0001149  82.0340 278.0782 15.08848291 77711,6917.855,95.437,540.515,538.925,0.0
52832.0,STARLINK-4083,PAYLOAD,2023-11-09 06:08:43,15.08853897,0.0001233,53.2182,256.3541,84.2999,275.8134,0.00047048,7.211e-05,0.0,0 STARLINK-4083,1 52832U 22062C   23313.25606345  .00007211  00000-0  47048-3 0  9992,2 52832  53.2182 256.3541 0001233  84.2999 275.8134 15.08853897 77243,6917.838,95.437,540.556,538.85,0.0
52832.0,STARLINK-4083,PAYLOAD,2023-11-10 02:48:44,15.08852835,0.0001447,53.2178,252.4883,84.848,275.2677,0.00013661,1.888e-05,0.0,0 STARLINK-4083,1 52832U 22062C   23314.11718237  .00001888  00000-0  13661-3 0  9990,2 52832  53.2178 252.4883 0001447  84.8480 275.2677 15.08852835 77867,6917.841,95.437,540.707,538.705,0.0
52832.0,STARLINK-4083,PAYLOAD,2023-11-10 05:59:31,15.08843994,0.0001608,53.2189,251.8903,91.2926,268.825,0.00012424,1.69e-05,0.0,0 STARLINK-4083,1 52832U 22062C   23314.24966701  .00001690  00000-0  12424-3 0  9992,2 52832  53.2189 251.8903 0001608  91.2926 268.8250 15.08843994 77884,6917.868,95.437,540.846,538.621,0.0
52832.0,STARLINK-4083,PAYLOAD,2023-11-11 05:50:18,15.0884249,0.0001626,53.2179,247.4301,88.3185,271.7993,1.825e-05,2e-08,0.0,0 STARLINK-4083,1 52832U 22062C   23315.24326763  .00000002  00000-0  18250-4 0  9991,2 52832  53.2179 247.4301 0001626  88.3185 271.7993 15.08842490 78035,6917.873,95.437,540.863,538.613,0.0
52832.0,STARLINK-4083,PAYLOAD,2023-11-12 02:30:19,15.08836988,0.0001507,53.2177,243.5686,88.3992,271.7172,2.118e-05,4.9e-07,0.0,0 STARLINK-4083,1 52832U 22062C   23316.10439647  .00000049  00000-0  21180-4 0  9990,2 52832  53.2177 243.5686 0001507  88.3992 271.7172 15.08836988 78168,6917.89,95.438,540.797,538.712,0.0
52832.0,STARLINK-4083,PAYLOAD,2023-11-12 12:02:38,15.08839212,0.0001528,53.2177,241.7843,88.3687,271.7481,3.9789e-05,3.45e-06,0.0,0 STARLINK-4083,1 52832U 22062C   23316.50183611  .00000345  00000-0  39789-4 0  9994,2 52832  53.2177 241.7843 0001528  88.3687 271.7481 15.08839212 77735,6917.883,95.438,540.805,538.691,0.0
52832.0,STARLINK-4083,PAYLOAD,2023-11-12 18:24:11,15.0883532,0.0001566,53.2178,240.5953,89.8978,270.2193,0.00014615,2.038e-05,0.0,0 STARLINK-4083,1 52832U 22062C   23316.76679918  .00002038  00000-0  14615-3 0  9993,2 52832  53.2178 240.5953 0001566  89.8978 270.2193 15.08835320 77770,6917.895,95.438,540.843,538.676,0.0
52832.0,STARLINK-4083,PAYLOAD,2023-11-13 02:21:05,15.08857241,0.000168,53.2179,239.1037,104.2029,255.915,0.00034625,5.229e-05,0.0,0 STARLINK-4083,1 52832U 22062C   23317.09798432  .00005229  00000-0  34625-3 0  9991,2 52832  53.2179 239.1037 0001680 104.2029 255.9150 15.08857241 78314,6917.828,95.436,540.855,538.53,0.0
52832.0,STARLINK-4083,PAYLOAD,2023-11-13 11:53:25,15.08849206,0.0002052,53.219,237.3219,83.0558,277.0667,0.000136,1.877e-05,0.0,0 STARLINK-4083,1 52832U 22062C   23317.49542836  .00001877  00000-0  13600-3 0  9995,2 52832  53.2190 237.3219 0002052  83.0558 277.0667 15.08849206 78370,6917.852,95.437,541.137,538.298,0.0
52832.0,STARLINK-4083,PAYLOAD,2023-11-14 02:11:54,15.08834588,0.000166,53.2184,234.6483,78.4675,281.6504,3.0599e-05,1.99e-06,0.0,0 STARLINK-4083,1 52832U 22062C   23318.09160057  .00000199  00000-0  30599-4 0  9996,2 52832  53.2184 234.6483 0001660  78.4675 281.6504 15.08834588 78466,6917.897,95.438,540.91,538.614,0.0
52832.0,STARLINK-4083,PAYLOAD,2023-11-14 11:44:12,15.08839045,0.0001531,53.218,232.866,86.3349,273.7818,8.4821e-05,1.062e-05,0.0,0 STARLINK-4083,1 52832U 22062C   23318.48903646  .00001062  00000-0  84821-4 0  9995,2 52832  53.2180 232.8660 0001531  86.3349 273.7818 15.08839045 78038,6917.883,95.438,540.807,538.689,0.0
52832.0,STARLINK-4083,PAYLOAD,2023-11-14 18:05:45,15.08842287,0.000163,53.2182,231.6775,85.5728,274.545,1.1997e-05,-9.7e-07,0.0,0 STARLINK-4083,1 52832U 22062C   23318.75399672 -.00000097  00000-0  11997-4 0  9995,2 52832  53.2182 231.6775 0001630  85.5728 274.5450 15.08842287 78567,6917.873,95.437,540.866,538.611,0.0
52832.0,STARLINK-4083,PAYLOAD,2023-11-15 00:27:17,15.08842533,0.0001651,53.2183,230.488,85.3546,274.7635,1.1983e-05,-9.7e-07,0.0,0 STARLINK-4083,1 52832U 22062C   23319.01895611 -.00000097  00000-0  11983-4 0  9994,2 52832  53.2183 230.4880 0001651  85.3546 274.7635 15.08842533 78113,6917.873,95.437,540.88,538.596,0.0
52832.0,STARLINK-4083,PAYLOAD,2023-11-16 03:28:51,15.08840283,0.0001587,53.2187,225.4289,92.6944,267.4229,9.4313e-05,1.213e-05,0.0,0 STARLINK-4083,1 52832U 22062C   23320.14503501  .00001213  00000-0  94313-4 0  9992,2 52832  53.2187 225.4289 0001587  92.6944 267.4229 15.08840283 78775,6917.88,95.438,540.842,538.647,0.0
52832.0,STARLINK-4083,PAYLOAD,2023-11-17 03:19:38,15.08835107,0.0001626,53.2195,220.9677,104.6116,255.5056,0.00022446,3.286e-05,0.0,0 STARLINK-4083,1 52832U 22062C   23321.13863518  .00003286  00000-0  22446-3 0  9998,2 52832  53.2195 220.9677 0001626 104.6116 255.5056 15.08835107 78432,6917.895,95.438,540.885,538.635,0.0
